STARLINK-31573          
1 59334U 24057Q   26068.36056542  .00002727  00000+0  10867-3 0  9997
2 59334  43.0023 188.5038 0001438 261.0470  99.0218 15.27550253109797
XCUBE-1                 
1 62400U 24247Z   26068.48297321  .00009773  00000+0  36224-3 0  9994
2 62400  44.9938 117.7807 0005235 331.1499  28.9094 15.27910558 67702
